OBJECT_NAME,OBJECT_ID,EPOCH,MEAN_MOTION,ECCENTRICITY,INCLINATION,RA_OF_ASC_NODE,ARG_OF_PERICENTER,MEAN_ANOMALY,EPHEMERIS_TYPE,CLASSIFICATION_TYPE,NORAD_CAT_ID,ELEMENT_SET_NO,REV_AT_EPOCH,BSTAR,MEAN_MOTION_DOT,MEAN_MOTION_DDOT
IRIDIUM 154,2018-061F,2026-06-26T13:56:02.430816,14.34218115,.00021771,86.3955,52.8790,89.4440,270.7005,0,U,43574,999,41475,.31842376E-4,.109E-5,0
IRIDIUM 163,2018-061G,2026-06-26T15:09:06.495552,14.34217800,.00022122,86.3952,52.7727,83.6957,276.4490,0,U,43575,999,41473,.28357533E-4,.99E-6,0
IRIDIUM 156,2018-061H,2026-06-26T14:32:34.937088,14.34218626,.0002009,86.3953,52.7907,85.5642,274.5784,0,U,43576,999,41472,.68694183E-4,.212E-5,0
IRIDIUM 164,2018-061J,2026-06-26T14:05:10.473792,14.34218087,.00022342,86.3954,52.8391,90.3060,269.8392,0,U,43577,999,41476,.2461326E-4,.89E-6,0
IRIDIUM 159,2018-061K,2026-06-26T14:59:58.483680,14.34217576,.00021064,86.3947,52.7595,83.6965,276.4471,0,U,43578,999,41473,.1736E-8,.2E-6,0
IRIDIUM 180,2019-002A,2026-06-26T18:20:10.959072,14.34217266,.0002123,86.3971,349.5932,89.2700,270.8739,0,U,43922,999,39036,-.99652E-5,-.8E-7,0
IRIDIUM 176,2019-002B,2026-06-26T17:49:01.485984,14.72226002,.0002423,86.6094,349.5443,88.4016,271.7479,0,U,43923,999,40065,.11427E-3,.745E-5,0
IRIDIUM 168,2019-002C,2026-06-26T18:11:02.515200,14.34216534,.0002236,86.3976,349.6732,90.4570,269.6882,0,U,43924,999,39034,.18432E-4,.71E-6,0
IRIDIUM 173,2019-002D,2026-06-26T17:52:46.944192,14.34217836,.0002162,86.3972,349.5671,88.5487,271.5956,0,U,43925,999,39032,.97728E-5,.47E-6,0
IRIDIUM 169,2019-002E,2026-06-26T13:44:42.532800,14.38607360,.0001677,86.4219,21.2686,82.4882,277.6507,0,U,43926,999,39157,.72238E-4,.241E-5,0
IRIDIUM 172,2019-002F,2026-06-26T17:43:38.826048,14.34216783,.0002134,86.3970,349.5777,89.4943,270.6497,0,U,43927,999,39033,-.6654E-5,.1E-7,0
IRIDIUM 175,2019-002G,2026-06-26T16:51:49.354848,14.43617552,.000371,86.4517,286.5433,154.0348,206.1040,0,U,43928,999,40035,.78054E-4,.285E-5,0
IRIDIUM 171,2019-002H,2026-06-26T17:16:14.912256,14.34217432,.0001976,86.3979,349.8930,93.7864,266.3558,0,U,43929,999,39032,-.92048E-5,-.6E-7,0
IRIDIUM 170,2019-002J,2026-06-26T11:26:25.123488,14.72226168,.00025057,86.6093,349.6578,86.1295,274.0209,0,U,43930,999,40062,.11257419E-3,.734E-5,0
IRIDIUM 167,2019-002K,2026-06-26T12:05:42.896544,14.34217427,.0001893,86.3970,349.6984,97.0714,263.0697,0,U,43931,999,39029,-.10040729E-4,-.8E-7,0
IRIDIUM 181,2023-068S,2026-06-26T14:30:36.101664,14.43310795,.00024183,86.4491,52.8536,87.7025,272.4453,0,U,56726,999,16379,.70836996E-4,.259E-5,0
IRIDIUM 177,2023-068T,2026-06-25T21:47:29.981760,14.80225983,.00023134,86.1972,324.6490,89.1000,271.0486,0,U,56727,999,16765,.67760963E-4,.542E-5,0
IRIDIUM 174,2023-068U,2026-06-26T11:08:39.046848,14.72233751,.00024062,86.6100,349.8111,80.4661,279.6828,0,U,56728,999,16738,.11681665E-3,.761E-5,0
IRIDIUM 178,2023-068V,2026-06-25T11:47:42.753984,14.80247119,.0002557,86.6533,21.8888,84.2279,275.9234,0,U,56729,999,16759,.1235E-3,.965E-5,0
IRIDIUM 179,2023-068W,2026-06-26T02:16:06.980736,14.80228421,.00023923,86.6770,30.6433,89.1630,270.9866,0,U,56730,999,16768,.48718648E-4,.396E-5,0
