IRIDIUM 154             
1 43574U 18061F   26177.58058369  .00000109  00000+0  31842-4 0  9997
2 43574  86.3955  52.8790 0002177  89.4440 270.7005 14.34218115414750
IRIDIUM 163             
1 43575U 18061G   26177.63132518  .00000099  00000+0  28358-4 0  9999
2 43575  86.3952  52.7727 0002212  83.6957 276.4490 14.34217800414735
IRIDIUM 156             
1 43576U 18061H   26177.60595992  .00000212  00000+0  68694-4 0  9990
2 43576  86.3953  52.7907 0002009  85.5642 274.5784 14.34218626414724
IRIDIUM 164             
1 43577U 18061J   26177.58692678  .00000089  00000+0  24613-4 0  9992
2 43577  86.3954  52.8391 0002234  90.3060 269.8392 14.34218087414769
IRIDIUM 159             
1 43578U 18061K   26177.62498245  .00000020  00000+0  17360-8 0  9992
2 43578  86.3947  52.7595 0002106  83.6965 276.4471 14.34217576414735
IRIDIUM 180             
1 43922U 19002A   26177.76401573 -.00000008  00000+0 -99652-5 0  9993
2 43922  86.3971 349.5932 0002123  89.2700 270.8739 14.34217266390368
IRIDIUM 176             
1 43923U 19002B   26177.74237831  .00000745  00000+0  11427-3 0  9994
2 43923  86.6094 349.5443 0002423  88.4016 271.7479 14.72226002400654
IRIDIUM 168             
1 43924U 19002C   26177.75766800  .00000071  00000+0  18432-4 0  9995
2 43924  86.3976 349.6732 0002236  90.4570 269.6882 14.34216534390348
IRIDIUM 173             
1 43925U 19002D   26177.74498778  .00000047  00000+0  97728-5 0  9990
2 43925  86.3972 349.5671 0002162  88.5487 271.5956 14.34217836390327
IRIDIUM 169             
1 43926U 19002E   26177.57271450  .00000241  00000+0  72238-4 0  9992
2 43926  86.4219  21.2686 0001677  82.4882 277.6507 14.38607360391571
IRIDIUM 172             
1 43927U 19002F   26177.73864382  .00000001  00000+0 -66540-5 0  9998
2 43927  86.3970 349.5777 0002134  89.4943 270.6497 14.34216783390331
IRIDIUM 175             
1 43928U 19002G   26177.70265457  .00000285  00000+0  78054-4 0  9999
2 43928  86.4517 286.5433 0003710 154.0348 206.1040 14.43617552400359
IRIDIUM 171             
1 43929U 19002H   26177.71961704 -.00000006  00000+0 -92048-5 0  9992
2 43929  86.3979 349.8930 0001976  93.7864 266.3558 14.34217432390320
IRIDIUM 170             
1 43930U 19002J   26177.47667967  .00000734  00000+0  11257-3 0  9998
2 43930  86.6093 349.6578 0002505  86.1295 274.0209 14.72226168400623
IRIDIUM 167             
1 43931U 19002K   26177.50396871 -.00000008  00000+0 -10041-4 0  9993
2 43931  86.3970 349.6984 0001893  97.0714 263.0697 14.34217427390298
IRIDIUM 181             
1 56726U 23068S   26177.60458451  .00000259  00000+0  70837-4 0  9995
2 56726  86.4491  52.8536 0002418  87.7025 272.4453 14.43310795163793
IRIDIUM 177             
1 56727U 23068T   26176.90798590  .00000542  00000+0  67761-4 0  9996
2 56727  86.1972 324.6490 0002313  89.1000 271.0486 14.80225983167652
IRIDIUM 174             
1 56728U 23068U   26177.46434082  .00000761  00000+0  11682-3 0  9995
2 56728  86.6100 349.8111 0002406  80.4661 279.6828 14.72233751167387
IRIDIUM 178             
1 56729U 23068V   26176.49146706  .00000965  00000+0  12350-3 0  9990
2 56729  86.6533  21.8888 0002557  84.2279 275.9234 14.80247119167595
IRIDIUM 179             
1 56730U 23068W   26177.09452524  .00000396  00000+0  48719-4 0  9994
2 56730  86.6770  30.6433 0002392  89.1630 270.9866 14.80228421167687
